NORAD_CAT_ID,OBJECT_NAME,OBJECT_TYPE,EPOCH,MEAN_MOTION,ECCENTRICITY,INCLINATION,RA_OF_ASC_NODE,ARG_OF_PERICENTER,MEAN_ANOMALY,BSTAR,MEAN_MOTION_DOT,MEAN_MOTION_DDOT,TLE_LINE0,TLE_LINE1,TLE_LINE2,SEMIMAJOR_AXIS,PERIOD,APOGEE,PERIGEE,DECAYED
53783.0,STARLINK-4536,PAYLOAD,2023-06-21 20:28:07,15.08841637,8.31e-05,53.2174,46.5686,83.8035,276.3052,7.201e-05,8.59e-06,0.0,0 STARLINK-4536,1 53783U 22111L   23172.85286446  .00000859  00000-0  72010-4 0  9997,2 53783  53.2174  46.5686 0000831  83.8035 276.3052 15.08841637 43964,6917.875,95.437,540.315,539.166,0.0
53783.0,STARLINK-4536,PAYLOAD,2023-06-21 22:03:30,15.08845686,8.21e-05,53.2173,46.2717,81.5035,278.605,9.0938e-05,1.16e-05,0.0,0 STARLINK-4536,1 53783U 22111L   23172.91910150  .00001160  00000-0  90938-4 0  9995,2 53783  53.2173  46.2717 0000821  81.5035 278.6050 15.08845686 43162,6917.863,95.437,540.296,539.16,0.0
53783.0,STARLINK-4536,PAYLOAD,2023-06-22 18:43:31,15.08836789,8.81e-05,53.217,42.4063,76.0316,284.0774,7.1824e-05,8.55e-06,0.0,0 STARLINK-4536,1 53783U 22111L   23173.78022761  .00000855  00000-0  71824-4 0  9996,2 53783  53.2170  42.4063 0000881  76.0316 284.0774 15.08836789 43290,6917.89,95.438,540.365,539.146,0.0
53783.0,STARLINK-4536,PAYLOAD,2023-06-23 01:05:03,15.08846679,9.51e-05,53.2178,41.2132,110.466,249.6435,7.0907e-05,8.41e-06,0.0,0 STARLINK-4536,1 53783U 22111L   23174.04517916  .00000841  00000-0  70907-4 0  9993,2 53783  53.2178  41.2132 0000951 110.4660 249.6435 15.08846679 43330,6917.86,95.437,540.383,539.067,0.0
53783.0,STARLINK-4536,PAYLOAD,2023-06-23 18:34:18,15.08836327,9.81e-05,53.2178,37.9424,97.2398,262.8706,-1.457e-05,-5.2e-06,0.0,0 STARLINK-4536,1 53783U 22111L   23174.77383025 -.00000520  00000-0 -14570-4 0  9995,2 53783  53.2178  37.9424 0000981  97.2398 262.8706 15.08836327 43448,6917.892,95.438,540.435,539.078,0.0
53783.0,STARLINK-4536,PAYLOAD,2023-06-24 07:17:23,15.08841353,8.92e-05,53.2174,35.5661,79.6216,280.4877,4.619e-05,4.48e-06,0.0,0 STARLINK-4536,1 53783U 22111L   23175.30374617  .00000448  00000-0  46190-4 0  9992,2 53783  53.2174  35.5661 0000892  79.6216 280.4877 15.08841353 43524,6917.876,95.437,540.358,539.124,0.0
53783.0,STARLINK-4536,PAYLOAD,2023-06-25 15:05:07,15.08833994,8.94e-05,53.2168,29.6202,85.3446,274.7648,4.0865e-05,3.63e-06,0.0,0 STARLINK-4536,1 53783U 22111L   23176.62855443  .00000363  00000-0  40865-4 0  9998,2 53783  53.2168  29.6202 0000894  85.3446 274.7648 15.08833994 43729,6917.899,95.438,540.382,539.145,0.0
53783.0,STARLINK-4536,PAYLOAD,2023-06-26 00:37:25,15.08845357,9.01e-05,53.2174,27.8353,88.3321,271.7775,0.00011946,1.614e-05,0.0,0 STARLINK-4536,1 53783U 22111L   23177.02598500  .00001614  00000-0  11946-3 0  9998,2 53783  53.2174  27.8353 0000901  88.3321 271.7775 15.08845357 43787,6917.864,95.437,540.352,539.106,0.0
53783.0,STARLINK-4536,PAYLOAD,2023-06-26 06:58:57,15.08841677,8.42e-05,53.2176,26.6466,86.3102,273.7986,9.0466e-05,1.152e-05,0.0,0 STARLINK-4536,1 53783U 22111L   23177.29094882  .00001152  00000-0  90466-4 0  9993,2 53783  53.2176  26.6466 0000842  86.3102 273.7986 15.08841677 43822,6917.875,95.437,540.323,539.158,0.0
53783.0,STARLINK-4536,PAYLOAD,2023-06-26 21:17:26,15.08840138,9.03e-05,53.2181,23.9679,75.2413,284.8679,2.7946e-05,1.57e-06,0.0,0 STARLINK-4536,1 53783U 22111L   23177.88711309  .00000157  00000-0  27946-4 0  9995,2 53783  53.2181  23.9679 0000903  75.2413 284.8679 15.08840138 43917,6917.88,95.438,540.37,539.12,0.0
53783.0,STARLINK-4536,PAYLOAD,2023-06-28 17:48:14,15.08835936,8.56e-05,53.2175,15.6429,76.78,283.3288,9.0514e-05,1.153e-05,0.0,0 STARLINK-4536,1 53783U 22111L   23179.74183482  .00001153  00000-0  90514-4 0  9995,2 53783  53.2175  15.6429 0000856  76.7800 283.3288 15.08835936 44195,6917.893,95.438,540.35,539.166,0.0
53783.0,STARLINK-4536,PAYLOAD,2023-06-28 22:34:23,15.08844013,9.74e-05,53.2179,14.7495,77.1606,282.9495,7.7381e-05,9.44e-06,0.0,0 STARLINK-4536,1 53783U 22111L   23179.94055049  .00000944  00000-0  77381-4 0  9998,2 53783  53.2179  14.7495 0000974  77.1606 282.9495 15.08844013 44227,6917.868,95.437,540.407,539.059,0.0
53783.0,STARLINK-4536,PAYLOAD,2023-06-29 19:14:26,15.08820327,7.89e-05,53.2176,10.8847,97.2351,262.873,-0.00013137,-2.377e-05,0.0,0 STARLINK-4536,1 53783U 22111L   23180.80169716 -.00002377  00000-0 -13137-3 0  9994,2 53783  53.2176  10.8847 0000789  97.2351 262.8730 15.08820327 44351,6917.941,95.439,540.351,539.26,0.0
53783.0,STARLINK-4536,PAYLOAD,2023-06-30 15:54:26,15.08840839,7.47e-05,53.2179,7.0202,90.1053,270.0024,-2.4341e-05,-6.75e-06,0.0,0 STARLINK-4536,1 53783U 22111L   23181.66280542 -.00000675  00000-0 -24341-4 0  9999,2 53783  53.2179   7.0202 0000747  90.1053 270.0024 15.08840839 44483,6917.878,95.438,540.26,539.226,0.0
53783.0,STARLINK-4536,PAYLOAD,2023-06-30 17:29:48,15.08849287,7.04e-05,53.2182,6.72,93.7006,266.4067,0.00011622,1.563e-05,0.0,0 STARLINK-4536,1 53783U 22111L   23181.72903660  .00001563  00000-0  11622-3 0  9991,2 53783  53.2182   6.7200 0000704  93.7006 266.4067 15.08849287 44494,6917.852,95.437,540.204,539.23,0.0
53783.0,STARLINK-4536,PAYLOAD,2023-07-01 18:55:58,15.08843972,6.21e-05,53.2179,1.9642,77.1034,283.0027,0.00026023,3.857e-05,0.0,0 STARLINK-4536,1 53783U 22111L   23182.78887551  .00003857  00000-0  26023-3 0  9997,2 53783  53.2179   1.9642 0000621  77.1034 283.0027 15.08843972 44656,6917.868,95.437,540.163,539.304,0.0
53783.0,STARLINK-4536,PAYLOAD,2023-07-02 04:28:18,15.0883879,5.57e-05,53.2175,0.1792,63.2876,296.8173,0.00021881,3.196e-05,0.0,0 STARLINK-4536,1 53783U 22111L   23183.18631973  .00003196  00000-0  21881-3 0  9990,2 53783  53.2175   0.1792 0000557  63.2876 296.8173 15.08838790 44710,6917.884,95.438,540.134,539.364,0.0
53783.0,STARLINK-4536,PAYLOAD,2023-07-03 12:16:00,15.08841585,4.99e-05,53.2185,354.2333,72.2167,287.8879,-5.6796e-05,-1.191e-05,0.0,0 STARLINK-4536,1 53783U 22111L   23184.51112094 -.00001191  00000-0 -56796-4 0  9995,2 53783  53.2185 354.2333 0000499  72.2167 287.8879 15.08841585 44914,6917.876,95.437,540.086,539.395,0.0
53783.0,STARLINK-4536,PAYLOAD,2023-07-03 23:23:41,15.08852515,5.76e-05,53.2181,352.1515,79.5063,280.5994,1.7918e-05,-2e-08,0.0,0 STARLINK-4536,1 53783U 22111L   23184.97478980 -.00000002  00000-0  17918-4 0  9996,2 53783  53.2181 352.1515 0000576  79.5063 280.5994 15.08852515 44980,6917.842,95.437,540.106,539.309,0.0
53783.0,STARLINK-4536,PAYLOAD,2023-07-04 16:52:57,15.08838277,6.68e-05,53.2181,348.8808,81.3612,278.7455,5.4834e-06,-2e-06,0.0,0 STARLINK-4536,1 53783U 22111L   23185.70344011 -.00000200  00000-0  54834-5 0  9994,2 53783  53.2181 348.8808 0000668  81.3612 278.7455 15.08838277 45093,6917.886,95.438,540.213,539.289,0.0
53783.0,STARLINK-4536,PAYLOAD,2023-07-04 23:14:29,15.08845944,6.06e-05,53.2178,347.6908,76.7785,283.3275,6.7005e-05,7.79e-06,0.0,0 STARLINK-4536,1 53783U 22111L   23185.96839314  .00000779  00000-0  67005-4 0  9990,2 53783  53.2178 347.6908 0000606  76.7785 283.3275 15.08845944 45134,6917.862,95.437,540.146,539.308,0.0
53783.0,STARLINK-4536,PAYLOAD,2023-07-05 04:00:39,15.08841168,6.01e-05,53.218,346.799,76.4359,283.67,1.1092e-05,-1.11e-06,0.0,0 STARLINK-4536,1 53783U 22111L   23186.16711813 -.00000111  00000-0  11092-4 0  9992,2 53783  53.2180 346.7990 0000601  76.4359 283.6700 15.08841168 45160,6917.877,95.437,540.158,539.326,0.0
53783.0,STARLINK-4536,PAYLOAD,2023-07-05 16:43:44,15.0883468,1.25e-05,53.2178,344.4188,71.6279,288.4727,-2.5177e-05,-6.88e-06,0.0,0 STARLINK-4536,1 53783U 22111L   23186.69704305 -.00000688  00000-0 -25177-4 0  9997,2 53783  53.2178 344.4188 0000125  71.6279 288.4727 15.08834680 45242,6917.897,95.438,539.848,539.675,0.0
53783.0,STARLINK-4536,PAYLOAD,2023-07-06 10:12:58,15.08836842,6.41e-05,53.2175,341.1496,65.863,294.243,8.9725e-05,1.141e-05,0.0,0 STARLINK-4536,1 53783U 22111L   23187.42568016  .00001141  00000-0  89725-4 0  9998,2 53783  53.2175 341.1496 0000641  65.8630 294.2430 15.08836842 45354,6917.89,95.438,540.198,539.312,0.0
53783.0,STARLINK-4536,PAYLOAD,2023-07-06 18:09:54,15.08846302,5.82e-05,53.2177,339.6623,75.9462,284.1595,6.9438e-05,8.18e-06,0.0,0 STARLINK-4536,1 53783U 22111L   23187.75687524  .00000818  00000-0  69438-4 0  9999,2 53783  53.2177 339.6623 0000582  75.9462 284.1595 15.08846302 45407,6917.861,95.437,540.129,539.324,0.0
53783.0,STARLINK-4536,PAYLOAD,2023-07-08 09:54:32,15.08834685,5.55e-05,53.2191,332.2246,102.6125,257.4929,8.6165e-05,1.084e-05,0.0,0 STARLINK-4536,1 53783U 22111L   23189.41288015  .00001084  00000-0  86165-4 0  9998,2 53783  53.2191 332.2246 0000555 102.6125 257.4929 15.08834685 45659,6917.897,95.438,540.146,539.378,0.0
53783.0,STARLINK-4536,PAYLOAD,2023-07-09 12:56:06,15.08833641,6.37e-05,53.218,327.1719,85.6108,274.4957,-1.453e-05,-5.19e-06,0.0,0 STARLINK-4536,1 53783U 22111L   23190.53896576 -.00000519  00000-0 -14530-4 0  9991,2 53783  53.2180 327.1719 0000637  85.6108 274.4957 15.08833641 45827,6917.9,95.438,540.205,539.324,0.0
53783.0,STARLINK-4536,PAYLOAD,2023-07-10 17:33:02,15.08842878,5.7e-05,53.2179,321.8195,77.2561,282.8495,9.8763e-05,1.285e-05,0.0,0 STARLINK-4536,1 53783U 22111L   23191.73127937  .00001285  00000-0  98763-4 0  9991,2 53783  53.2179 321.8195 0000570  77.2561 282.8495 15.08842878 46003,6917.872,95.437,540.131,539.342,0.0
53783.0,STARLINK-4536,PAYLOAD,2023-07-11 01:29:58,15.08837066,5.44e-05,53.218,320.3322,76.1671,283.9382,1.578e-05,-3.6e-07,0.0,0 STARLINK-4536,1 53783U 22111L   23192.06248509 -.00000036  00000-0  15780-4 0  9999,2 53783  53.2180 320.3322 0000544  76.1671 283.9382 15.08837066 46057,6917.889,95.438,540.131,539.378,0.0
53783.0,STARLINK-4536,PAYLOAD,2023-07-11 20:34:35,15.08843592,6.49e-05,53.218,316.7645,85.0675,275.0391,0.00012867,1.761e-05,0.0,0 STARLINK-4536,1 53783U 22111L   23192.85736091  .00001761  00000-0  12867-3 0  9991,2 53783  53.2180 316.7645 0000649  85.0675 275.0391 15.08843592 46179,6917.869,95.437,540.183,539.285,0.0
